0 SL-8 R/B
1 13003U 81120G   13281.38371809 -.00000076  00000-0 -11702-2 0  6303
2 13003 082.9539 245.6487 0082930 093.0426 018.0362 11.91481320383618
0 SL-8 R/B
1 13003U 81120G   13283.41470096 -.00000063  00000-0 -98943-3 0  6317
2 13003 082.9542 244.5728 0082940 089.0297 089.5517 11.91481151383853
0 SL-8 R/B
1 13003U 81120G   13285.82202404 -.00000052  00000-0 -83410-3 0  6322
2 13003 082.9545 243.2976 0082964 084.2721 335.3068 11.91480855384148
0 SL-8 R/B
1 13003U 81120G   13287.82864641 -.00000034  00000-0 -59499-3 0  6332
2 13003 082.9549 242.2347 0082883 080.3178 302.3207 11.91480607384386
0 SL-8 R/B
1 13003U 81120G   13289.85236936 -.00000014  00000-0 -32277-3 0  6341
2 13003 082.9552 241.1627 0082835 076.3172 342.6960 11.91480266384626
0 SL-8 R/B
1 13003U 81120G   13292.21003516 -.00000014  00000-0 -31474-3 0  6350
2 13003 082.9555 239.9140 0082838 071.6519 015.4550 11.91480043384904
0 SL-8 R/B
1 13003U 81120G   13294.48428420 -.00000027  00000-0 -50265-3 0  6360
2 13003 082.9558 238.7096 0082814 067.1546 050.4067 11.91480277385179
